start=new Date('2021-09-23T00:00:00.000Z').valueOf();
sats=[{"OBJECT_ID":"2020-038AP","TLE_LINE2":"2 45767  53.0557 329.9512 0000965 100.0002 260.1096 15.06393803 70920","NORAD_CAT_ID":"45767","MEAN_MOTION_DDOT":"0.0000000000000","TIME_SYSTEM":"UTC","OBJECT_TYPE":"PAYLOAD","MEAN_MOTION_DOT":"0.00001248","REV_AT_EPOCH":"7092","CENTER_NAME":"EARTH","OBJECT_NAME":"STARLINK-1511","MEAN_ELEMENT_THEORY":"SGP4","REF_FRAME":"TEME","SITE":"AFETR","TLE_LINE1":"1 45767U 20038AP  21265.58705429  .00001248  00000-0  10266-3 0  9991","INCLINATION":"53.0557","ARG_OF_PERICENTER":"100.0002","MEAN_ANOMALY":"260.1096","EPHEMERIS_TYPE":"0","PERIOD":"95.593","APOAPSIS":"547.901","RCS_SIZE":"LARGE","SEMIMAJOR_AXIS":"6925.368","GP_ID":"185266426","ECCENTRICITY":"0.00009650","ELEMENT_SET_NO":"999","BSTAR":"0.00010266000000","CLASSIFICATION_TYPE":"U","LAUNCH_DATE":"2020-06-13","DECAY_DATE":null,"MEAN_MOTION":"15.06393803","COUNTRY_CODE":"US","EPOCH":"2021-09-22T14:05:21.490656","PERIAPSIS":"546.564","RA_OF_ASC_NODE":"329.9512","FILE":"3123736"},{"MEAN_ANOMALY":"257.4224","EPHEMERIS_TYPE":"0","PERIOD":"95.592","APOAPSIS":"547.859","RCS_SIZE":"LARGE","SEMIMAJOR_AXIS":"6925.354","ECCENTRICITY":"0.00009240","GP_ID":"185266678","ELEMENT_SET_NO":"999","BSTAR":"0.00003360000000","CLASSIFICATION_TYPE":"U","LAUNCH_DATE":"2020-06-13","DECAY_DATE":null,"MEAN_MOTION":"15.06398165","COUNTRY_CODE":"US","EPOCH":"2021-09-22T13:38:47.980032","PERIAPSIS":"546.579","FILE":"3123736","RA_OF_ASC_NODE":"330.0352","OBJECT_ID":"2020-038AQ","NORAD_CAT_ID":"45768","TLE_LINE2":"2 45768  53.0560 330.0352 0000924 102.6868 257.4224 15.06398165 70932","MEAN_MOTION_DDOT":"0.0000000000000","TIME_SYSTEM":"UTC","OBJECT_TYPE":"PAYLOAD","REV_AT_EPOCH":"7093","MEAN_MOTION_DOT":"0.00000219","CENTER_NAME":"EARTH","OBJECT_NAME":"STARLINK-1521","MEAN_ELEMENT_THEORY":"SGP4","REF_FRAME":"TEME","SITE":"AFETR","TLE_LINE1":"1 45768U 20038AQ  21265.56861088  .00000219  00000-0  33600-4 0  9999","INCLINATION":"53.0560","ARG_OF_PERICENTER":"102.6868"},{"CENTER_NAME":"EARTH","MEAN_MOTION_DOT":"0.00001202","REV_AT_EPOCH":"7066","MEAN_ELEMENT_THEORY":"SGP4","OBJECT_NAME":"STARLINK-1459","TLE_LINE1":"1 45769U 20038AR  21265.65892667  .00001202  00000-0  99498-4 0  9997","SITE":"AFETR","REF_FRAME":"TEME","ARG_OF_PERICENTER":"94.1764","INCLINATION":"53.0561","OBJECT_ID":"2020-038AR","NORAD_CAT_ID":"45769","TLE_LINE2":"2 45769  53.0561 349.6291 0000839  94.1764 265.9321 15.06413406 70665","TIME_SYSTEM":"UTC","MEAN_MOTION_DDOT":"0.0000000000000","OBJECT_TYPE":"PAYLOAD","LAUNCH_DATE":"2020-06-13","CLASSIFICATION_TYPE":"U","BSTAR":"0.00009949800000","PERIAPSIS":"546.591","EPOCH":"2021-09-22T15:48:51.264288","MEAN_MOTION":"15.06413406","DECAY_DATE":null,"COUNTRY_CODE":"US","RA_OF_ASC_NODE":"349.6291","FILE":"3123736","PERIOD":"95.591","EPHEMERIS_TYPE":"0","MEAN_ANOMALY":"265.9321","RCS_SIZE":"LARGE","APOAPSIS":"547.754","SEMIMAJOR_AXIS":"6925.307","ELEMENT_SET_NO":"999","ECCENTRICITY":"0.00008390","GP_ID":"185266906"},{"ARG_OF_PERICENTER":"113.6191","INCLINATION":"53.0555","TLE_LINE1":"1 45770U 20038AS  21265.52896293  .00001452  00000-0  11635-3 0  9997","SITE":"AFETR","REF_FRAME":"TEME","MEAN_ELEMENT_THEORY":"SGP4","OBJECT_NAME":"STARLINK-1462","CENTER_NAME":"EARTH","REV_AT_EPOCH":"7119","MEAN_MOTION_DOT":"0.00001452","OBJECT_TYPE":"PAYLOAD","TIME_SYSTEM":"UTC","MEAN_MOTION_DDOT":"0.0000000000000","NORAD_CAT_ID":"45770","TLE_LINE2":"2 45770  53.0555 310.2143 0000532 113.6191 246.4854 15.06397520 71193","OBJECT_ID":"2020-038AS","RA_OF_ASC_NODE":"310.2143","FILE":"3123736","PERIAPSIS":"546.853","EPOCH":"2021-09-22T12:41:42.397152","DECAY_DATE":null,"MEAN_MOTION":"15.06397520","COUNTRY_CODE":"US","LAUNCH_DATE":"2020-06-13","CLASSIFICATION_TYPE":"U","BSTAR":"0.00011635000000","ELEMENT_SET_NO":"999","GP_ID":"185266177","ECCENTRICITY":"0.00005320","SEMIMAJOR_AXIS":"6925.356","APOAPSIS":"547.590","RCS_SIZE":"LARGE","PERIOD":"95.592","EPHEMERIS_TYPE":"0","MEAN_ANOMALY":"246.4854"},{"TLE_LINE2":"2 45771  53.0551 310.8371 0000882  92.5050 267.6040 15.06390557 71179","NORAD_CAT_ID":"45771","OBJECT_ID":"2020-038AT","OBJECT_TYPE":"PAYLOAD","MEAN_MOTION_DDOT":"0.0000000000000","TIME_SYSTEM":"UTC","OBJECT_NAME":"STARLINK-1463","MEAN_ELEMENT_THEORY":"SGP4","MEAN_MOTION_DOT":"0.00001011","REV_AT_EPOCH":"7117","CENTER_NAME":"EARTH","INCLINATION":"53.0551","ARG_OF_PERICENTER":"92.5050","SITE":"AFETR","REF_FRAME":"TEME","TLE_LINE1":"1 45771U 20038AT  21265.38985674  .00001011  00000-0  86735-4 0  9999","RCS_SIZE":"LARGE","APOAPSIS":"547.853","MEAN_ANOMALY":"267.6040","EPHEMERIS_TYPE":"0","PERIOD":"95.593","GP_ID":"185237734","ECCENTRICITY":"0.00008820","ELEMENT_SET_NO":"999","SEMIMAJOR_AXIS":"6925.377","COUNTRY_CODE":"US","DECAY_DATE":null,"MEAN_MOTION":"15.06390557","EPOCH":"2021-09-22T09:21:23.622336","PERIAPSIS":"546.632","BSTAR":"0.00008673500000","CLASSIFICATION_TYPE":"U","LAUNCH_DATE":"2020-06-13","RA_OF_ASC_NODE":"310.8371","FILE":"3123417"},{"OBJECT_TYPE":"PAYLOAD","MEAN_MOTION_DDOT":"0.0000000000000","TIME_SYSTEM":"UTC","TLE_LINE2":"2 45772  53.0556 311.1875 0000734  97.2971 262.8102 15.06388300 71177","NORAD_CAT_ID":"45772","OBJECT_ID":"2020-038AU","INCLINATION":"53.0556","ARG_OF_PERICENTER":"97.2971","SITE":"AFETR","REF_FRAME":"TEME","TLE_LINE1":"1 45772U 20038AU  21265.31245360  .00001002  00000-0  86167-4 0  9993","OBJECT_NAME":"STARLINK-1470","MEAN_ELEMENT_THEORY":"SGP4","MEAN_MOTION_DOT":"0.00001002","REV_AT_EPOCH":"7117","CENTER_NAME":"EARTH","ECCENTRICITY":"0.00007340","GP_ID":"185236482","ELEMENT_SET_NO":"999","SEMIMAJOR_AXIS":"6925.384","RCS_SIZE":"LARGE","APOAPSIS":"547.758","MEAN_ANOMALY":"262.8102","EPHEMERIS_TYPE":"0","PERIOD":"95.593","RA_OF_ASC_NODE":"311.1875","FILE":"3123417","COUNTRY_CODE":"US","DECAY_DATE":null,"MEAN_MOTION":"15.06388300","EPOCH":"2021-09-22T07:29:55.991040","PERIAPSIS":"546.741","BSTAR":"0.00008616700000","CLASSIFICATION_TYPE":"U","LAUNCH_DATE":"2020-06-13"},{"TLE_LINE1":"1 45773U 20038AV  21265.30506553  .00001107  00000-0  93217-4 0  9997","SITE":"AFETR","REF_FRAME":"TEME","ARG_OF_PERICENTER":"83.5623","INCLINATION":"53.0551","CENTER_NAME":"EARTH","REV_AT_EPOCH":"7117","MEAN_MOTION_DOT":"0.00001107","MEAN_ELEMENT_THEORY":"SGP4","OBJECT_NAME":"STARLINK-1482","MEAN_MOTION_DDOT":"0.0000000000000","TIME_SYSTEM":"UTC","OBJECT_TYPE":"PAYLOAD","OBJECT_ID":"2020-038AV","TLE_LINE2":"2 45773  53.0551 311.2133 0000869  83.5623 276.5465 15.06400164 71179","NORAD_CAT_ID":"45773","RA_OF_ASC_NODE":"311.2133","FILE":"3123417","CLASSIFICATION_TYPE":"U","BSTAR":"0.00009321700000","LAUNCH_DATE":"2020-06-13","MEAN_MOTION":"15.06400164","DECAY_DATE":null,"COUNTRY_CODE":"US","PERIAPSIS":"546.611","EPOCH":"2021-09-22T07:19:17.661792","SEMIMAJOR_AXIS":"6925.348","GP_ID":"185236732","ECCENTRICITY":"0.00008690","ELEMENT_SET_NO":"999","EPHEMERIS_TYPE":"0","MEAN_ANOMALY":"276.5465","PERIOD":"95.592","APOAPSIS":"547.815","RCS_SIZE":"LARGE"},{"RCS_SIZE":"MEDIUM","APOAPSIS":"547.846","PERIOD":"95.593","MEAN_ANOMALY":"266.6935","EPHEMERIS_TYPE":"0","ELEMENT_SET_NO":"999","GP_ID":"185265678","ECCENTRICITY":"0.00008870","SEMIMAJOR_AXIS":"6925.367","EPOCH":"2021-09-22T12:59:00.178656","PERIAPSIS":"546.618","COUNTRY_CODE":"US","DECAY_DATE":null,"MEAN_MOTION":"15.06393961","LAUNCH_DATE":"2020-06-13","BSTAR":"-0.00003255900000","CLASSIFICATION_TYPE":"U","RA_OF_ASC_NODE":"310.1626","FILE":"3123736","NORAD_CAT_ID":"45774","TLE_LINE2":"2 45774  53.0539 310.1626 0000887  93.4156 266.6935 15.06393961 71204","OBJECT_ID":"2020-038AW","OBJECT_TYPE":"PAYLOAD","TIME_SYSTEM":"UTC","MEAN_MOTION_DDOT":"0.0000000000000","OBJECT_NAME":"STARLINK-1485","MEAN_ELEMENT_THEORY":"SGP4","MEAN_MOTION_DOT":"-0.00000766","REV_AT_EPOCH":"7120","CENTER_NAME":"EARTH","INCLINATION":"53.0539","ARG_OF_PERICENTER":"93.4156","REF_FRAME":"TEME","SITE":"AFETR","TLE_LINE1":"1 45774U 20038AW  21265.54097429 -.00000766  00000-0 -32559-4 0  9995"},{"OBJECT_TYPE":"PAYLOAD","MEAN_MOTION_DDOT":"0.0000000000000","TIME_SYSTEM":"UTC","TLE_LINE2":"2 45775  53.0548 310.1407 0000805  82.1316 277.9765 15.06394845 71214","NORAD_CAT_ID":"45775","OBJECT_ID":"2020-038AX","INCLINATION":"53.0548","ARG_OF_PERICENTER":"82.1316","REF_FRAME":"TEME","SITE":"AFETR","TLE_LINE1":"1 45775U 20038AX  21265.54466057 -.00000715  00000-0 -29159-4 0  9999","OBJECT_NAME":"STARLINK-1488","MEAN_ELEMENT_THEORY":"SGP4","MEAN_MOTION_DOT":"-0.00000715","REV_AT_EPOCH":"7121","CENTER_NAME":"EARTH","GP_ID":"185266427","ECCENTRICITY":"0.00008050","ELEMENT_SET_NO":"999","SEMIMAJOR_AXIS":"6925.364","APOAPSIS":"547.787","RCS_SIZE":"LARGE","MEAN_ANOMALY":"277.9765","EPHEMERIS_TYPE":"0","PERIOD":"95.592","RA_OF_ASC_NODE":"310.1407","FILE":"3123736","COUNTRY_CODE":"US","DECAY_DATE":null,"MEAN_MOTION":"15.06394845","EPOCH":"2021-09-22T13:04:18.673248","PERIAPSIS":"546.672","BSTAR":"-0.00002915900000","CLASSIFICATION_TYPE":"U","LAUNCH_DATE":"2020-06-13"},{"COUNTRY_CODE":"US","DECAY_DATE":null,"MEAN_MOTION":"15.06397274","PERIAPSIS":"546.664","EPOCH":"2021-09-22T10:03:50.658912","CLASSIFICATION_TYPE":"U","BSTAR":"0.00008726600000","LAUNCH_DATE":"2020-06-13","FILE":"3123417","RA_OF_ASC_NODE":"310.7106","RCS_SIZE":"LARGE","APOAPSIS":"547.779","EPHEMERIS_TYPE":"0","MEAN_ANOMALY":"264.1422","PERIOD":"95.592","GP_ID":"185235983","ECCENTRICITY":"0.00008050","ELEMENT_SET_NO":"999","SEMIMAJOR_AXIS":"6925.357","MEAN_ELEMENT_THEORY":"SGP4","OBJECT_NAME":"STARLINK-1489","CENTER_NAME":"EARTH","MEAN_MOTION_DOT":"0.00001019","REV_AT_EPOCH":"7119","ARG_OF_PERICENTER":"95.9659","INCLINATION":"53.0538","TLE_LINE1":"1 45776U 20038AY  21265.41933633  .00001019  00000-0  87266-4 0  9994","SITE":"AFETR","REF_FRAME":"TEME","NORAD_CAT_ID":"45776","TLE_LINE2":"2 45776  53.0538 310.7106 0000805  95.9659 264.1422 15.06397274 71192","OBJECT_ID":"2020-038AY","OBJECT_TYPE":"PAYLOAD","MEAN_MOTION_DDOT":"0.0000000000000","TIME_SYSTEM":"UTC"}];
